{
  "norad_id": 46576,
  "name": "STARLINK-1677",
  "history": [
    {
      "epoch": "2026-04-10T12:28:37.065216Z",
      "apogee_km": 350.2278320060086,
      "perigee_km": 345.46314601079484,
      "latitude_deg": 7.140007403530856e-05,
      "longitude_deg": -58.91292674234102,
      "height_km": 350.4514719038062,
      "semi_major_axis_km": 6725.982489008401,
      "eccentricity": 0.0003542,
      "inclination_deg": 53.0359,
      "raan_deg": 326.994,
      "arg_perigee_deg": 224.4587,
      "mean_anomaly_deg": 135.6148,
      "mean_motion_rev_day": 15.7387111
    },
    {
      "epoch": "2026-04-11T20:00:01.000224Z",
      "apogee_km": 349.3146475907615,
      "perigee_km": 344.34086365750136,
      "latitude_deg": -47.64861764291499,
      "longitude_deg": 55.5893979440162,
      "height_km": 360.70529751619006,
      "semi_major_axis_km": 6724.964755624131,
      "eccentricity": 0.0003698,
      "inclination_deg": 53.0354,
      "raan_deg": 320.4597,
      "arg_perigee_deg": 232.0632,
      "mean_anomaly_deg": 15.1778,
      "mean_motion_rev_day": 15.742284
    },
    {
      "epoch": "2026-04-13T02:56:44.183040Z",
      "apogee_km": 348.7028055101846,
      "perigee_km": 343.1988706512011,
      "latitude_deg": -2.4613555466480886e-05,
      "longitude_deg": 68.5365446250659,
      "height_km": 347.953361413915,
      "semi_major_axis_km": 6724.087838080693,
      "eccentricity": 0.00040927,
      "inclination_deg": 53.0351,
      "raan_deg": 314.0387,
      "arg_perigee_deg": 246.5356,
      "mean_anomaly_deg": 113.5232,
      "mean_motion_rev_day": 15.74536363
    },
    {
      "epoch": "2026-04-14T20:04:20.769600Z",
      "apogee_km": 347.9429673917966,
      "perigee_km": 342.26586234108254,
      "latitude_deg": -1.2931209166989392e-05,
      "longitude_deg": 161.41089227111277,
      "height_km": 346.72233866837814,
      "semi_major_axis_km": 6723.241414866439,
      "eccentricity": 0.0004222,
      "inclination_deg": 53.0342,
      "raan_deg": 305.5045,
      "arg_perigee_deg": 255.4955,
      "mean_anomaly_deg": 104.5595,
      "mean_motion_rev_day": 15.74833712
    },
    {
      "epoch": "2026-04-15T18:55:01.884000Z",
      "apogee_km": 347.5061032873109,
      "perigee_km": 341.6533061241944,
      "latitude_deg": 5.4354859345214876e-05,
      "longitude_deg": 173.05823374325092,
      "height_km": 345.7222931088509,
      "semi_major_axis_km": 6722.716704705753,
      "eccentricity": 0.0004353,
      "inclination_deg": 53.0339,
      "raan_deg": 300.7613,
      "arg_perigee_deg": 265.3862,
      "mean_anomaly_deg": 94.666,
      "mean_motion_rev_day": 15.7501809
    },
    {
      "epoch": "2026-04-16T19:16:55.280640Z",
      "apogee_km": 347.0439189912795,
      "perigee_km": 341.0772963946911,
      "latitude_deg": 1.532938864595243e-05,
      "longitude_deg": 161.52549236902806,
      "height_km": 345.21623425174073,
      "semi_major_axis_km": 6722.197607692985,
      "eccentricity": 0.0004438,
      "inclination_deg": 53.0336,
      "raan_deg": 295.7017,
      "arg_perigee_deg": 265.2249,
      "mean_anomaly_deg": 94.8263,
      "mean_motion_rev_day": 15.75200531
    },
    {
      "epoch": "2026-04-17T22:41:21.049728Z",
      "apogee_km": 346.4401578986435,
      "perigee_km": 340.6228226870353,
      "latitude_deg": -8.895992117539348e-06,
      "longitude_deg": 103.59943251757717,
      "height_km": 344.22047503884306,
      "semi_major_axis_km": 6721.668490292839,
      "eccentricity": 0.00043273,
      "inclination_deg": 53.0333,
      "raan_deg": 290.0086,
      "arg_perigee_deg": 274.3038,
      "mean_anomaly_deg": 85.7486,
      "mean_motion_rev_day": 15.7538653
    },
    {
      "epoch": "2026-04-18T20:00:10.322784Z",
      "apogee_km": 346.0664775931955,
      "perigee_km": 339.59687314628536,
      "latitude_deg": -3.0636455878652234e-05,
      "longitude_deg": 138.5898898827906,
      "height_km": 343.1479715417105,
      "semi_major_axis_km": 6720.968675369741,
      "eccentricity": 0.0004813,
      "inclination_deg": 53.0332,
      "raan_deg": 285.5797,
      "arg_perigee_deg": 280.5326,
      "mean_anomaly_deg": 79.515,
      "mean_motion_rev_day": 15.7563259
    },
    {
      "epoch": "2026-04-19T20:21:26.875008Z",
      "apogee_km": 345.3608874809606,
      "perigee_km": 338.73747198221736,
      "latitude_deg": 2.257156011646149e-05,
      "longitude_deg": 127.2088532438206,
      "height_km": 342.0888090755697,
      "semi_major_axis_km": 6720.186179731589,
      "eccentricity": 0.0004928,
      "inclination_deg": 53.0331,
      "raan_deg": 280.5178,
      "arg_perigee_deg": 285.1962,
      "mean_anomaly_deg": 74.8512,
      "mean_motion_rev_day": 15.75907797
    }
  ]
}